[{"OBJECT_NAME":"COSMOS 2251 DEB","OBJECT_ID":"1993-036VL","EPOCH":"2026-03-04T11:48:59.394240","MEAN_MOTION":14.72001919,"ECCENTRICITY":0.00667354,"INCLINATION":74.0653,"RA_OF_ASC_NODE":244.5909,"ARG_OF_PERICENTER":245.46,"MEAN_ANOMALY":144.8394,"EPHEMERIS_TYPE":0,"CLASSIFICATION_TYPE":"U","NORAD_CAT_ID":34574,"ELEMENT_SET_NO":999,"REV_AT_EPOCH":89981,"BSTAR":0.0018252949,"MEAN_MOTION_DOT":0.00011854,"MEAN_MOTION_DDOT":0},{"OBJECT_NAME":"COSMOS 2251 DEB","OBJECT_ID":"1993-036VN","EPOCH":"2026-03-04T18:04:01.324704","MEAN_MOTION":14.56089214,"ECCENTRICITY":0.00062283,"INCLINATION":74.0371,"RA_OF_ASC_NODE":342.7396,"ARG_OF_PERICENTER":107.1979,"MEAN_ANOMALY":284.1173,"EPHEMERIS_TYPE":0,"CLASSIFICATION_TYPE":"U","NORAD_CAT_ID":34576,"ELEMENT_SET_NO":999,"REV_AT_EPOCH":89660,"BSTAR":0.0010448373,"MEAN_MOTION_DOT":4.582e-5,"MEAN_MOTION_DDOT":0},{"OBJECT_NAME":"COSMOS 2251 DEB","OBJECT_ID":"1993-036VR","EPOCH":"2026-03-05T04:09:24.624288","MEAN_MOTION":14.45611643,"ECCENTRICITY":0.00247834,"INCLINATION":74.0509,"RA_OF_ASC_NODE":70.386,"ARG_OF_PERICENTER":122.937,"MEAN_ANOMALY":355.7826,"EPHEMERIS_TYPE":0,"CLASSIFICATION_TYPE":"U","NORAD_CAT_ID":34579,"ELEMENT_SET_NO":999,"REV_AT_EPOCH":89365,"BSTAR":0.00046551853,"MEAN_MOTION_DOT":1.625e-5,"MEAN_MOTION_DDOT":0},{"OBJECT_NAME":"COSMOS 2251 DEB","OBJECT_ID":"1993-036VU","EPOCH":"2026-03-05T03:12:09.238464","MEAN_MOTION":14.43742615,"ECCENTRICITY":0.00497561,"INCLINATION":74.0179,"RA_OF_ASC_NODE":119.1013,"ARG_OF_PERICENTER":213.6977,"MEAN_ANOMALY":146.1014,"EPHEMERIS_TYPE":0,"CLASSIFICATION_TYPE":"U","NORAD_CAT_ID":34582,"ELEMENT_SET_NO":999,"REV_AT_EPOCH":89136,"BSTAR":0.00057691987,"MEAN_MOTION_DOT":1.964e-5,"MEAN_MOTION_DDOT":0},{"OBJECT_NAME":"COSMOS 2251 DEB","OBJECT_ID":"1993-036WA","EPOCH":"2026-03-05T05:08:15.292032","MEAN_MOTION":14.42305284,"ECCENTRICITY":0.00173388,"INCLINATION":74.0417,"RA_OF_ASC_NODE":115.4017,"ARG_OF_PERICENTER":158.2303,"MEAN_ANOMALY":266.9341,"EPHEMERIS_TYPE":0,"CLASSIFICATION_TYPE":"U","NORAD_CAT_ID":34588,"ELEMENT_SET_NO":999,"REV_AT_EPOCH":89139,"BSTAR":0.00046578136,"MEAN_MOTION_DOT":1.514e-5,"MEAN_MOTION_DDOT":0},{"OBJECT_NAME":"COSMOS 2251 DEB","OBJECT_ID":"1993-036WB","EPOCH":"2026-03-05T01:22:52.860864","MEAN_MOTION":13.86255197,"ECCENTRICITY":0.02507898,"INCLINATION":73.923,"RA_OF_ASC_NODE":275.7332,"ARG_OF_PERICENTER":203.2311,"MEAN_ANOMALY":314.337,"EPHEMERIS_TYPE":0,"CLASSIFICATION_TYPE":"U","NORAD_CAT_ID":34589,"ELEMENT_SET_NO":999,"REV_AT_EPOCH":85852,"BSTAR":0.0005638643,"MEAN_MOTION_DOT":8.1e-6,"MEAN_MOTION_DDOT":0},{"OBJECT_NAME":"COSMOS 2251 DEB","OBJECT_ID":"1993-036WC","EPOCH":"2026-03-05T06:37:05.339136","MEAN_MOTION":14.54945548,"ECCENTRICITY":0.00705648,"INCLINATION":74.0446,"RA_OF_ASC_NODE":166.4063,"ARG_OF_PERICENTER":275.0141,"MEAN_ANOMALY":114.9923,"EPHEMERIS_TYPE":0,"CLASSIFICATION_TYPE":"U","NORAD_CAT_ID":34590,"ELEMENT_SET_NO":999,"REV_AT_EPOCH":90321,"BSTAR":0.00019430368,"MEAN_MOTION_DOT":8.33e-6,"MEAN_MOTION_DDOT":0},{"OBJECT_NAME":"COSMOS 2251 DEB","OBJECT_ID":"1993-036WE","EPOCH":"2026-03-05T03:24:44.930016","MEAN_MOTION":14.2215447,"ECCENTRICITY":0.01439378,"INCLINATION":73.7335,"RA_OF_ASC_NODE":316.067,"ARG_OF_PERICENTER":163.1579,"MEAN_ANOMALY":349.6746,"EPHEMERIS_TYPE":0,"CLASSIFICATION_TYPE":"U","NORAD_CAT_ID":34609,"ELEMENT_SET_NO":999,"REV_AT_EPOCH":87803,"BSTAR":0.00074031105,"MEAN_MOTION_DOT":1.797e-5,"MEAN_MOTION_DDOT":0},{"OBJECT_NAME":"COSMOS 2251 DEB","OBJECT_ID":"1993-036WF","EPOCH":"2026-03-05T03:43:18.499008","MEAN_MOTION":14.07604877,"ECCENTRICITY":0.01819994,"INCLINATION":74.0166,"RA_OF_ASC_NODE":117.719,"ARG_OF_PERICENTER":230.3685,"MEAN_ANOMALY":128.1272,"EPHEMERIS_TYPE":0,"CLASSIFICATION_TYPE":"U","NORAD_CAT_ID":34610,"ELEMENT_SET_NO":999,"REV_AT_EPOCH":86719,"BSTAR":0.0017709796,"MEAN_MOTION_DOT":3.453e-5,"MEAN_MOTION_DDOT":0},{"OBJECT_NAME":"COSMOS 2251 DEB","OBJECT_ID":"1993-036WG","EPOCH":"2026-03-05T02:42:18.620064","MEAN_MOTION":14.71203785,"ECCENTRICITY":0.00223482,"INCLINATION":74.0527,"RA_OF_ASC_NODE":301.3306,"ARG_OF_PERICENTER":318.6625,"MEAN_ANOMALY":194.0481,"EPHEMERIS_TYPE":0,"CLASSIFICATION_TYPE":"U","NORAD_CAT_ID":34611,"ELEMENT_SET_NO":999,"REV_AT_EPOCH":89601,"BSTAR":0.0014177422,"MEAN_MOTION_DOT":8.752e-5,"MEAN_MOTION_DDOT":0},{"OBJECT_NAME":"COSMOS 2251 DEB","OBJECT_ID":"1993-036WJ","EPOCH":"2026-03-03T14:49:57.411840","MEAN_MOTION":14.26966492,"ECCENTRICITY":0.0114607,"INCLINATION":73.9626,"RA_OF_ASC_NODE":131.626,"ARG_OF_PERICENTER":303.9371,"MEAN_ANOMALY":207.0186,"EPHEMERIS_TYPE":0,"CLASSIFICATION_TYPE":"U","NORAD_CAT_ID":34613,"ELEMENT_SET_NO":999,"REV_AT_EPOCH":87616,"BSTAR":0.0014727,"MEAN_MOTION_DOT":3.814e-5,"MEAN_MOTION_DDOT":0},{"OBJECT_NAME":"COSMOS 2251 DEB","OBJECT_ID":"1993-036WK","EPOCH":"2026-03-05T08:08:19.860864","MEAN_MOTION":14.19831972,"ECCENTRICITY":0.01868881,"INCLINATION":73.8773,"RA_OF_ASC_NODE":194.9456,"ARG_OF_PERICENTER":174.9857,"MEAN_ANOMALY":217.7934,"EPHEMERIS_TYPE":0,"CLASSIFICATION_TYPE":"U","NORAD_CAT_ID":34614,"ELEMENT_SET_NO":999,"REV_AT_EPOCH":85938,"BSTAR":0.0074926261,"MEAN_MOTION_DOT":0.00018947,"MEAN_MOTION_DDOT":0},{"OBJECT_NAME":"COSMOS 2251 DEB","OBJECT_ID":"1993-036WL","EPOCH":"2026-03-05T03:10:46.331616","MEAN_MOTION":13.52330217,"ECCENTRICITY":0.03990421,"INCLINATION":74.0051,"RA_OF_ASC_NODE":161.9996,"ARG_OF_PERICENTER":51.7907,"MEAN_ANOMALY":19.9794,"EPHEMERIS_TYPE":0,"CLASSIFICATION_TYPE":"U","NORAD_CAT_ID":34615,"ELEMENT_SET_NO":999,"REV_AT_EPOCH":83929,"BSTAR":0.00034215713,"MEAN_MOTION_DOT":3.54e-6,"MEAN_MOTION_DDOT":0},{"OBJECT_NAME":"COSMOS 2251 DEB","OBJECT_ID":"1993-036WQ","EPOCH":"2026-03-04T14:45:39.658176","MEAN_MOTION":14.64927795,"ECCENTRICITY":0.0091824,"INCLINATION":74.0441,"RA_OF_ASC_NODE":42.5641,"ARG_OF_PERICENTER":117.2754,"MEAN_ANOMALY":243.7804,"EPHEMERIS_TYPE":0,"CLASSIFICATION_TYPE":"U","NORAD_CAT_ID":34619,"ELEMENT_SET_NO":999,"REV_AT_EPOCH":90497,"BSTAR":0.00029107,"MEAN_MOTION_DOT":1.624e-5,"MEAN_MOTION_DDOT":0},{"OBJECT_NAME":"COSMOS 2251 DEB","OBJECT_ID":"1993-036WR","EPOCH":"2026-03-04T10:16:20.783712","MEAN_MOTION":14.51187157,"ECCENTRICITY":0.00703736,"INCLINATION":74.0499,"RA_OF_ASC_NODE":66.2153,"ARG_OF_PERICENTER":83.1184,"MEAN_ANOMALY":277.7977,"EPHEMERIS_TYPE":0,"CLASSIFICATION_TYPE":"U","NORAD_CAT_ID":34620,"ELEMENT_SET_NO":999,"REV_AT_EPOCH":88011,"BSTAR":0.0038458149,"MEAN_MOTION_DOT":0.00015778,"MEAN_MOTION_DDOT":0},{"OBJECT_NAME":"COSMOS 2251 DEB","OBJECT_ID":"1993-036WT","EPOCH":"2026-03-05T06:23:45.244896","MEAN_MOTION":14.22397103,"ECCENTRICITY":0.01069422,"INCLINATION":74.0425,"RA_OF_ASC_NODE":158.897,"ARG_OF_PERICENTER":223.64,"MEAN_ANOMALY":169.2107,"EPHEMERIS_TYPE":0,"CLASSIFICATION_TYPE":"U","NORAD_CAT_ID":34622,"ELEMENT_SET_NO":999,"REV_AT_EPOCH":87633,"BSTAR":0.0012389941,"MEAN_MOTION_DOT":2.9e-5,"MEAN_MOTION_DDOT":0}]
