COSMOS 2251 DEB         
1 34574U 93036VL  26063.49235410  .00011854  00000+0  18253-2 0  9998
2 34574  74.0653 244.5909 0066735 245.4600 144.8394 14.72001919899813
COSMOS 2251 DEB         
1 34576U 93036VN  26063.75279311  .00004582  00000+0  10448-2 0  9995
2 34576  74.0371 342.7396 0006228 107.1979 284.1173 14.56089214896600
COSMOS 2251 DEB         
1 34579U 93036VR  26064.17320167  .00001625  00000+0  46552-3 0  9992
2 34579  74.0509  70.3860 0024783 122.9370 355.7826 14.45611643893659
COSMOS 2251 DEB         
1 34582U 93036VU  26064.13344026  .00001964  00000+0  57692-3 0  9995
2 34582  74.0179 119.1013 0049756 213.6977 146.1014 14.43742615891365
COSMOS 2251 DEB         
1 34588U 93036WA  26064.21406588  .00001514  00000+0  46578-3 0  9994
2 34588  74.0417 115.4017 0017338 158.2303 266.9341 14.42305284891390
COSMOS 2251 DEB         
1 34589U 93036WB  26064.05755626  .00000810  00000+0  56386-3 0  9993
2 34589  73.9230 275.7332 0250789 203.2311 314.3370 13.86255197858523
COSMOS 2251 DEB         
1 34590U 93036WC  26064.27575624  .00000833  00000+0  19430-3 0  9991
2 34590  74.0446 166.4063 0070564 275.0141 114.9923 14.54945548903219
COSMOS 2251 DEB         
1 34609U 93036WE  26064.14218669  .00001797  00000+0  74031-3 0  9999
2 34609  73.7335 316.0670 0143937 163.1579 349.6746 14.22154470878039
COSMOS 2251 DEB         
1 34610U 93036WF  26064.15507522  .00003453  00000+0  17710-2 0  9992
2 34610  74.0166 117.7190 0181999 230.3685 128.1272 14.07604877867198
COSMOS 2251 DEB         
1 34611U 93036WG  26064.11271551  .00008752  00000+0  14177-2 0  9990
2 34611  74.0527 301.3306 0022348 318.6625 194.0481 14.71203785896017
COSMOS 2251 DEB         
1 34613U 93036WJ  26062.61802560  .00003814  00000+0  14727-2 0  9990
2 34613  73.9626 131.6260 0114607 303.9371 207.0186 14.26966492876167
COSMOS 2251 DEB         
1 34614U 93036WK  26064.33911876  .00018947  00000+0  74926-2 0  9993
2 34614  73.8773 194.9456 0186888 174.9857 217.7934 14.19831972859384
COSMOS 2251 DEB         
1 34615U 93036WL  26064.13248069  .00000354  00000+0  34216-3 0  9991
2 34615  74.0051 161.9996 0399042  51.7907  19.9794 13.52330217839292
COSMOS 2251 DEB         
1 34619U 93036WQ  26063.61504234  .00001624  00000+0  29107-3 0  9990
2 34619  74.0441  42.5641 0091824 117.2754 243.7804 14.64927795904979
COSMOS 2251 DEB         
1 34620U 93036WR  26063.42801833  .00015778  00000+0  38458-2 0  9999
2 34620  74.0499  66.2153 0070373  83.1184 277.7977 14.51187157880112
COSMOS 2251 DEB         
1 34622U 93036WT  26064.26649589  .00002900  00000+0  12390-2 0  9992
2 34622  74.0425 158.8970 0106942 223.6400 169.2107 14.22397103876333
